{
  "type": "FeatureCollection",
  "features": [
    {
      "type": "Feature",
      "properties": {
        "norad_id": 28051,
        "name": "IRS-P6 (RESOURCESAT-1)",
        "group": "resource",
        "lat": -33.45144920274752,
        "lon": -145.96868921516872,
        "alt_km": 762.8266375392495,
        "timestamp": "2025-12-25T16:53:14.310326+00:00",
        "meta_object_name": "IRS-P6 (RESOURCESAT-1)",
        "meta_object_id": "2003-046A",
        "meta_epoch": "2025-12-25T06:27:37.373184",
        "meta_mean_motion": 14.36079884,
        "meta_eccentricity": 0.00649023,
        "meta_inclination": 98.2158,
        "meta_ra_of_asc_node": 39.0944,
        "meta_arg_of_pericenter": 143.2803,
        "meta_mean_anomaly": 344.9733,
        "meta_ephemeris_type": 0,
        "meta_classification_type": "U",
        "meta_norad_cat_id": 28051,
        "meta_element_set_no": 999,
        "meta_rev_at_epoch": 15556,
        "meta_bstar": 4.887114e-05,
        "meta_mean_motion_dot": 1.05e-06,
        "meta_mean_motion_ddot": 0,
        "tle_line1": "1 28051U 03046A   25359.26918256  .00000105  00000+0  48871-4 0  9999",
        "tle_line2": "2 28051  98.2158  39.0944 0064902 143.2803 344.9733 14.36079884155567"
      },
      "geometry": {
        "type": "Point",
        "coordinates": [
          -145.96868921516872,
          -33.45144920274752
        ]
      }
    },
    {
      "type": "Feature",
      "properties": {
        "norad_id": 28220,
        "name": "SHIYAN-1 (SY-1)",
        "group": "resource",
        "lat": 63.42159362111257,
        "lon": 45.91162636281695,
        "alt_km": 477.3526151377873,
        "timestamp": "2025-12-25T16:53:14.310337+00:00",
        "meta_object_name": "SHIYAN-1 (SY-1)",
        "meta_object_id": "2004-012A",
        "meta_epoch": "2025-12-25T02:27:54.101664",
        "meta_mean_motion": 15.28459772,
        "meta_eccentricity": 0.00051041,
        "meta_inclination": 97.8918,
        "meta_ra_of_asc_node": 61.3721,
        "meta_arg_of_pericenter": 272.4584,
        "meta_mean_anomaly": 87.607,
        "meta_ephemeris_type": 0,
        "meta_classification_type": "U",
        "meta_norad_cat_id": 28220,
        "meta_element_set_no": 999,
        "meta_rev_at_epoch": 18445,
        "meta_bstar": 0.00051188572,
        "meta_mean_motion_dot": 0.00014115,
        "meta_mean_motion_ddot": 0,
        "tle_line1": "1 28220U 04012A   25359.10270951  .00014115  00000+0  51189-3 0  9998",
        "tle_line2": "2 28220  97.8918  61.3721 0005104 272.4584  87.6070 15.28459772184450"
      },
      "geometry": {
        "type": "Point",
        "coordinates": [
          45.91162636281695,
          63.42159362111257
        ]
      }
    },
    {
      "type": "Feature",
      "properties": {
        "norad_id": 28376,
        "name": "AURA",
        "group": "resource",
        "lat": -19.654410104585143,
        "lon": 126.99575950936449,
        "alt_km": 695.5330942513247,
        "timestamp": "2025-12-25T16:53:14.310348+00:00",
        "meta_object_name": "AURA",
        "meta_object_id": "2004-026A",
        "meta_epoch": "2025-12-25T02:49:34.505472",
        "meta_mean_motion": 14.60974091,
        "meta_eccentricity": 0.00014365,
        "meta_inclination": 98.3203,
        "meta_ra_of_asc_node": 309.4031,
        "meta_arg_of_pericenter": 90.848,
        "meta_mean_anomaly": 269.2885,
        "meta_ephemeris_type": 0,
        "meta_classification_type": "U",
        "meta_norad_cat_id": 28376,
        "meta_element_set_no": 999,
        "meta_rev_at_epoch": 14079,
        "meta_bstar": 0.00023070946,
        "meta_mean_motion_dot": 1.083e-05,
        "meta_mean_motion_ddot": 0,
        "tle_line1": "1 28376U 04026A   25359.11776048  .00001083  00000+0  23071-3 0  9993",
        "tle_line2": "2 28376  98.3203 309.4031 0001436  90.8480 269.2885 14.60974091140798"
      },
      "geometry": {
        "type": "Point",
        "coordinates": [
          126.99575950936449,
          -19.654410104585143
        ]
      }
    },
    {
      "type": "Feature",
      "properties": {
        "norad_id": 28649,
        "name": "IRS-P5 (CARTOSAT-1)",
        "group": "resource",
        "lat": -14.935012087911247,
        "lon": 27.56852948205836,
        "alt_km": 601.2255315263646,
        "timestamp": "2025-12-25T16:53:14.310359+00:00",
        "meta_object_name": "IRS-P5 (CARTOSAT-1)",
        "meta_object_id": "2005-017A",
        "meta_epoch": "2025-12-25T02:27:12.423168",
        "meta_mean_motion": 14.90444639,
        "meta_eccentricity": 5.056e-05,
        "meta_inclination": 97.5483,
        "meta_ra_of_asc_node": 24.9669,
        "meta_arg_of_pericenter": 63.7048,
        "meta_mean_anomaly": 296.4223,
        "meta_ephemeris_type": 0,
        "meta_classification_type": "U",
        "meta_norad_cat_id": 28649,
        "meta_element_set_no": 999,
        "meta_rev_at_epoch": 11788,
        "meta_bstar": 0.00017427847,
        "meta_mean_motion_dot": 1.647e-05,
        "meta_mean_motion_ddot": 0,
        "tle_line1": "1 28649U 05017A   25359.10222712  .00001647  00000+0  17428-3 0  9995",
        "tle_line2": "2 28649  97.5483  24.9669 0000505  63.7048 296.4223 14.90444639117888"
      },
      "geometry": {
        "type": "Point",
        "coordinates": [
          27.56852948205836,
          -14.935012087911247
        ]
      }
    },
    {
      "type": "Feature",
      "properties": {
        "norad_id": 28893,
        "name": "SINAH 1",
        "group": "resource",
        "lat": -6.4556014909069805,
        "lon": -52.64595016609701,
        "alt_km": 683.6124728402447,
        "timestamp": "2025-12-25T16:53:14.310384+00:00",
        "meta_object_name": "SINAH 1",
        "meta_object_id": "2005-043D",
        "meta_epoch": "2025-12-25T07:50:18.250368",
        "meta_mean_motion": 14.6397532,
        "meta_eccentricity": 0.00157228,
        "meta_inclination": 98.2609,
        "meta_ra_of_asc_node": 127.918,
        "meta_arg_of_pericenter": 100.3021,
        "meta_mean_anomaly": 259.9955,
        "meta_ephemeris_type": 0,
        "meta_classification_type": "U",
        "meta_norad_cat_id": 28893,
        "meta_element_set_no": 999,
        "meta_rev_at_epoch": 7508,
        "meta_bstar": 9.756359e-05,
        "meta_mean_motion_dot": 4.63e-06,
        "meta_mean_motion_ddot": 0,
        "tle_line1": "1 28893U 05043D   25359.32660012  .00000463  00000+0  97564-4 0  9993",
        "tle_line2": "2 28893  98.2609 127.9180 0015722 100.3021 259.9955 14.63975320 75082"
      },
      "geometry": {
        "type": "Point",
        "coordinates": [
          -52.64595016609701,
          -6.4556014909069805
        ]
      }
    },
    {
      "type": "Feature",
      "properties": {
        "norad_id": 29079,
        "name": "EROS B",
        "group": "resource",
        "lat": 67.99561072975581,
        "lon": -44.451603489837495,
        "alt_km": 347.81458244494115,
        "timestamp": "2025-12-25T16:53:14.310396+00:00",
        "meta_object_name": "EROS B",
        "meta_object_id": "2006-014A",
        "meta_epoch": "2025-12-25T07:15:15.423840",
        "meta_mean_motion": 15.72409375,
        "meta_eccentricity": 0.00044291,
        "meta_inclination": 97.3449,
        "meta_ra_of_asc_node": 116.5109,
        "meta_arg_of_pericenter": 312.5736,
        "meta_mean_anomaly": 47.5154,
        "meta_ephemeris_type": 0,
        "meta_classification_type": "U",
        "meta_norad_cat_id": 29079,
        "meta_element_set_no": 999,
        "meta_rev_at_epoch": 9277,
        "meta_bstar": 0.0014815178,
        "meta_mean_motion_dot": 0.00200899,
        "meta_mean_motion_ddot": 0,
        "tle_line1": "1 29079U 06014A   25359.30226185  .00200899  00000+0  14815-2 0  9997",
        "tle_line2": "2 29079  97.3449 116.5109 0004429 312.5736  47.5154 15.72409375 92778"
      },
      "geometry": {
        "type": "Point",
        "coordinates": [
          -44.451603489837495,
          67.99561072975581
        ]
      }
    },
    {
      "type": "Feature",
      "properties": {
        "norad_id": 29228,
        "name": "RESURS-DK 1",
        "group": "resource",
        "lat": -37.965361403512695,
        "lon": -95.09309549901023,
        "alt_km": 530.9346803183962,
        "timestamp": "2025-12-25T16:53:14.310408+00:00",
        "meta_object_name": "RESURS-DK 1",
        "meta_object_id": "2006-021A",
        "meta_epoch": "2025-12-25T06:23:18.536064",
        "meta_mean_motion": 15.12229217,
        "meta_eccentricity": 0.00069126,
        "meta_inclination": 69.9336,
        "meta_ra_of_asc_node": 69.4642,
        "meta_arg_of_pericenter": 247.4897,
        "meta_mean_anomaly": 112.5537,
        "meta_ephemeris_type": 0,
        "meta_classification_type": "U",
        "meta_norad_cat_id": 29228,
        "meta_element_set_no": 999,
        "meta_rev_at_epoch": 7627,
        "meta_bstar": 0.00017972464,
        "meta_mean_motion_dot": 3.007e-05,
        "meta_mean_motion_ddot": 0,
        "tle_line1": "1 29228U 06021A   25359.26618676  .00003007  00000+0  17972-3 0  9996",
        "tle_line2": "2 29228  69.9336  69.4642 0006912 247.4897 112.5537 15.12229217 76279"
      },
      "geometry": {
        "type": "Point",
        "coordinates": [
          -95.09309549901023,
          -37.965361403512695
        ]
      }
    }
  ]
}